RAISE-4                 
1 67073U 25297B   25355.39638820  .00003233  00000+0  21859-3 0  9995
2 67073  97.4855 142.7124 0011409 288.7486  71.2503 15.07192134  1093
ELECTRON KICK STAGE R/B 
1 67074U 25297C   25355.36541540  .00277750  22456-4  14927-2 0  9993
2 67074  97.4823 143.2296 0198386 238.1777 120.0029 15.57200272  1125
STARLINK-36230          
1 67075U 25298A   25355.58335648  .00145586  00000+0  51438-3 0  9995
2 67075  69.9984 224.9748 0004138 264.1161 336.0950 15.88522578  2408
STARLINK-36240          
1 67076U 25298B   25355.58335648  .00194587  00000+0  68279-3 0  9992
2 67076  69.9984 224.9726 0004180 264.0380 337.8298 15.88541252  2408
STARLINK-36243          
1 67077U 25298C   25355.58335648  .00173793  00000+0  60928-3 0  9992
2 67077  69.9981 224.9699 0004186 265.4648 338.4025 15.88609399  2405
STARLINK-36236          
1 67078U 25298D   25355.58335648  .00141102  00000+0  49481-3 0  9993
2 67078  69.9984 224.9683 0004273 265.4744 339.8914 15.88684188  2407
STARLINK-36159          
1 67079U 25298E   25355.58335648  .00163801  00000+0  57167-3 0  9994
2 67079  69.9984 224.9660 0004191 266.0038 341.3898 15.88724381  2404
STARLINK-36158          
1 67080U 25298F   25355.58335648  .00182984  00000+0  63592-3 0  9998
2 67080  69.9980 224.9635 0004376 264.9119 344.3866 15.88762063  2346
STARLINK-35864          
1 67081U 25298G   25355.58335648  .00181905  00000+0  63049-3 0  9998
2 67081  69.9982 224.9614 0004336 264.4735 346.5200 15.88818617  2401
STARLINK-36035          
1 67082U 25298H   25355.58335648  .00191848  00000+0  66279-3 0  9994
2 67082  69.9982 224.9593 0004263 265.1674 347.6476 15.88860571  2400
STARLINK-36170          
1 67083U 25298J   25355.58335648  .00203109  00000+0  69898-3 0  9999
2 67083  69.9980 224.9571 0004269 263.8995 350.8152 15.88911699  2407
STARLINK-36166          
1 67084U 25298K   25355.58335648  .00183169  00000+0  63000-3 0  9992
2 67084  69.9980 224.9547 0004274 265.5409 350.9460 15.88970653  2347
