CCSDS_OMM_VERS = 2.0
CREATION_DATE  = 
ORIGINATOR     = 

OBJECT_NAME    = RAISE-4
OBJECT_ID      = 2025-297B
CENTER_NAME    = EARTH
REF_FRAME      = TEME
TIME_SYSTEM    = UTC
MEAN_ELEMENT_THEORY = SGP/SGP4

EPOCH          = 2025-12-21T09:30:47.940480
MEAN_MOTION    = 15.07192134
ECCENTRICITY   = .00114098
INCLINATION    = 97.4855
RA_OF_ASC_NODE = 142.7124
ARG_OF_PERICENTER = 288.7486
MEAN_ANOMALY   = 71.2503

EPHEMERIS_TYPE = 0
CLASSIFICATION_TYPE = U
NORAD_CAT_ID   = 67073
ELEMENT_SET_NO = 999
REV_AT_EPOCH   = 109
BSTAR          = .21859428E-3
MEAN_MOTION_DOT = .3233E-4
MEAN_MOTION_DDOT = 0

CCSDS_OMM_VERS = 2.0
CREATION_DATE  = 
ORIGINATOR     = 

OBJECT_NAME    = ELECTRON KICK STAGE R/B
OBJECT_ID      = 2025-297C
CENTER_NAME    = EARTH
REF_FRAME      = TEME
TIME_SYSTEM    = UTC
MEAN_ELEMENT_THEORY = SGP/SGP4

EPOCH          = 2025-12-21T08:46:11.890560
MEAN_MOTION    = 15.57200272
ECCENTRICITY   = .01983863
INCLINATION    = 97.4823
RA_OF_ASC_NODE = 143.2296
ARG_OF_PERICENTER = 238.1777
MEAN_ANOMALY   = 120.0029

EPHEMERIS_TYPE = 0
CLASSIFICATION_TYPE = U
NORAD_CAT_ID   = 67074
ELEMENT_SET_NO = 999
REV_AT_EPOCH   = 112
BSTAR          = .14927396E-2
MEAN_MOTION_DOT = .27775E-2
MEAN_MOTION_DDOT = .22456309E-4

CCSDS_OMM_VERS = 2.0
CREATION_DATE  = 
ORIGINATOR     = 

OBJECT_NAME    = STARLINK-36230
OBJECT_ID      = 2025-298A
CENTER_NAME    = EARTH
REF_FRAME      = TEME
TIME_SYSTEM    = UTC
MEAN_ELEMENT_THEORY = SGP/SGP4

EPOCH          = 2025-12-21T14:00:01.999872
MEAN_MOTION    = 15.88522578
ECCENTRICITY   = .00041388
INCLINATION    = 69.9984
RA_OF_ASC_NODE = 224.9748
ARG_OF_PERICENTER = 264.1161
MEAN_ANOMALY   = 336.0950

EPHEMERIS_TYPE = 0
CLASSIFICATION_TYPE = U
NORAD_CAT_ID   = 67075
ELEMENT_SET_NO = 999
REV_AT_EPOCH   = 240
BSTAR          = .51437521E-3
MEAN_MOTION_DOT = .145586E-2
MEAN_MOTION_DDOT = 0

CCSDS_OMM_VERS = 2.0
CREATION_DATE  = 
ORIGINATOR     = 

OBJECT_NAME    = STARLINK-36240
OBJECT_ID      = 2025-298B
CENTER_NAME    = EARTH
REF_FRAME      = TEME
TIME_SYSTEM    = UTC
MEAN_ELEMENT_THEORY = SGP/SGP4

EPOCH          = 2025-12-21T14:00:01.999872
MEAN_MOTION    = 15.88541252
ECCENTRICITY   = .00041804
INCLINATION    = 69.9984
RA_OF_ASC_NODE = 224.9726
ARG_OF_PERICENTER = 264.0380
MEAN_ANOMALY   = 337.8298

EPHEMERIS_TYPE = 0
CLASSIFICATION_TYPE = U
NORAD_CAT_ID   = 67076
ELEMENT_SET_NO = 999
REV_AT_EPOCH   = 240
BSTAR          = .68279099E-3
MEAN_MOTION_DOT = .194587E-2
MEAN_MOTION_DDOT = 0

CCSDS_OMM_VERS = 2.0
CREATION_DATE  = 
ORIGINATOR     = 

OBJECT_NAME    = STARLINK-36243
OBJECT_ID      = 2025-298C
CENTER_NAME    = EARTH
REF_FRAME      = TEME
TIME_SYSTEM    = UTC
MEAN_ELEMENT_THEORY = SGP/SGP4

EPOCH          = 2025-12-21T14:00:01.999872
MEAN_MOTION    = 15.88609399
ECCENTRICITY   = .00041868
INCLINATION    = 69.9981
RA_OF_ASC_NODE = 224.9699
ARG_OF_PERICENTER = 265.4648
MEAN_ANOMALY   = 338.4025

EPHEMERIS_TYPE = 0
CLASSIFICATION_TYPE = U
NORAD_CAT_ID   = 67077
ELEMENT_SET_NO = 999
REV_AT_EPOCH   = 240
BSTAR          = .60928048E-3
MEAN_MOTION_DOT = .173793E-2
MEAN_MOTION_DDOT = 0

CCSDS_OMM_VERS = 2.0
CREATION_DATE  = 
ORIGINATOR     = 

OBJECT_NAME    = STARLINK-36236
OBJECT_ID      = 2025-298D
CENTER_NAME    = EARTH
REF_FRAME      = TEME
TIME_SYSTEM    = UTC
MEAN_ELEMENT_THEORY = SGP/SGP4

EPOCH          = 2025-12-21T14:00:01.999872
MEAN_MOTION    = 15.88684188
ECCENTRICITY   = .00042735
INCLINATION    = 69.9984
RA_OF_ASC_NODE = 224.9683
ARG_OF_PERICENTER = 265.4744
MEAN_ANOMALY   = 339.8914

EPHEMERIS_TYPE = 0
CLASSIFICATION_TYPE = U
NORAD_CAT_ID   = 67078
ELEMENT_SET_NO = 999
REV_AT_EPOCH   = 240
BSTAR          = .49480589E-3
MEAN_MOTION_DOT = .141102E-2
MEAN_MOTION_DDOT = 0

CCSDS_OMM_VERS = 2.0
CREATION_DATE  = 
ORIGINATOR     = 

OBJECT_NAME    = STARLINK-36159
OBJECT_ID      = 2025-298E
CENTER_NAME    = EARTH
REF_FRAME      = TEME
TIME_SYSTEM    = UTC
MEAN_ELEMENT_THEORY = SGP/SGP4

EPOCH          = 2025-12-21T14:00:01.999872
MEAN_MOTION    = 15.88724381
ECCENTRICITY   = .00041911
INCLINATION    = 69.9984
RA_OF_ASC_NODE = 224.9660
ARG_OF_PERICENTER = 266.0038
MEAN_ANOMALY   = 341.3898

EPHEMERIS_TYPE = 0
CLASSIFICATION_TYPE = U
NORAD_CAT_ID   = 67079
ELEMENT_SET_NO = 999
REV_AT_EPOCH   = 240
BSTAR          = .57167409E-3
MEAN_MOTION_DOT = .163801E-2
MEAN_MOTION_DDOT = 0

CCSDS_OMM_VERS = 2.0
CREATION_DATE  = 
ORIGINATOR     = 

OBJECT_NAME    = STARLINK-36158
OBJECT_ID      = 2025-298F
CENTER_NAME    = EARTH
REF_FRAME      = TEME
TIME_SYSTEM    = UTC
MEAN_ELEMENT_THEORY = SGP/SGP4

EPOCH          = 2025-12-21T14:00:01.999872
MEAN_MOTION    = 15.88762063
ECCENTRICITY   = .00043768
INCLINATION    = 69.9980
RA_OF_ASC_NODE = 224.9635
ARG_OF_PERICENTER = 264.9119
MEAN_ANOMALY   = 344.3866

EPHEMERIS_TYPE = 0
CLASSIFICATION_TYPE = U
NORAD_CAT_ID   = 67080
ELEMENT_SET_NO = 999
REV_AT_EPOCH   = 234
BSTAR          = .63592122E-3
MEAN_MOTION_DOT = .182984E-2
MEAN_MOTION_DDOT = 0

CCSDS_OMM_VERS = 2.0
CREATION_DATE  = 
ORIGINATOR     = 

OBJECT_NAME    = STARLINK-35864
OBJECT_ID      = 2025-298G
CENTER_NAME    = EARTH
REF_FRAME      = TEME
TIME_SYSTEM    = UTC
MEAN_ELEMENT_THEORY = SGP/SGP4

EPOCH          = 2025-12-21T14:00:01.999872
MEAN_MOTION    = 15.88818617
ECCENTRICITY   = .00043365
INCLINATION    = 69.9982
RA_OF_ASC_NODE = 224.9614
ARG_OF_PERICENTER = 264.4735
MEAN_ANOMALY   = 346.5200

EPHEMERIS_TYPE = 0
CLASSIFICATION_TYPE = U
NORAD_CAT_ID   = 67081
ELEMENT_SET_NO = 999
REV_AT_EPOCH   = 240
BSTAR          = .63048549E-3
MEAN_MOTION_DOT = .181905E-2
MEAN_MOTION_DDOT = 0

CCSDS_OMM_VERS = 2.0
CREATION_DATE  = 
ORIGINATOR     = 

OBJECT_NAME    = STARLINK-36035
OBJECT_ID      = 2025-298H
CENTER_NAME    = EARTH
REF_FRAME      = TEME
TIME_SYSTEM    = UTC
MEAN_ELEMENT_THEORY = SGP/SGP4

EPOCH          = 2025-12-21T14:00:01.999872
MEAN_MOTION    = 15.88860571
ECCENTRICITY   = .00042631
INCLINATION    = 69.9982
RA_OF_ASC_NODE = 224.9593
ARG_OF_PERICENTER = 265.1674
MEAN_ANOMALY   = 347.6476

EPHEMERIS_TYPE = 0
CLASSIFICATION_TYPE = U
NORAD_CAT_ID   = 67082
ELEMENT_SET_NO = 999
REV_AT_EPOCH   = 240
BSTAR          = .66279046E-3
MEAN_MOTION_DOT = .191848E-2
MEAN_MOTION_DDOT = 0

CCSDS_OMM_VERS = 2.0
CREATION_DATE  = 
ORIGINATOR     = 

OBJECT_NAME    = STARLINK-36170
OBJECT_ID      = 2025-298J
CENTER_NAME    = EARTH
REF_FRAME      = TEME
TIME_SYSTEM    = UTC
MEAN_ELEMENT_THEORY = SGP/SGP4

EPOCH          = 2025-12-21T14:00:01.999872
MEAN_MOTION    = 15.88911699
ECCENTRICITY   = .00042694
INCLINATION    = 69.9980
RA_OF_ASC_NODE = 224.9571
ARG_OF_PERICENTER = 263.8995
MEAN_ANOMALY   = 350.8152

EPHEMERIS_TYPE = 0
CLASSIFICATION_TYPE = U
NORAD_CAT_ID   = 67083
ELEMENT_SET_NO = 999
REV_AT_EPOCH   = 240
BSTAR          = .69897812E-3
MEAN_MOTION_DOT = .203109E-2
MEAN_MOTION_DDOT = 0

CCSDS_OMM_VERS = 2.0
CREATION_DATE  = 
ORIGINATOR     = 

OBJECT_NAME    = STARLINK-36166
OBJECT_ID      = 2025-298K
CENTER_NAME    = EARTH
REF_FRAME      = TEME
TIME_SYSTEM    = UTC
MEAN_ELEMENT_THEORY = SGP/SGP4

EPOCH          = 2025-12-21T14:00:01.999872
MEAN_MOTION    = 15.88970653
ECCENTRICITY   = .00042741
INCLINATION    = 69.9980
RA_OF_ASC_NODE = 224.9547
ARG_OF_PERICENTER = 265.5409
MEAN_ANOMALY   = 350.9460

EPHEMERIS_TYPE = 0
CLASSIFICATION_TYPE = U
NORAD_CAT_ID   = 67084
ELEMENT_SET_NO = 999
REV_AT_EPOCH   = 234
BSTAR          = .62999583E-3
MEAN_MOTION_DOT = .183169E-2
MEAN_MOTION_DDOT = 0

